start=new Date('2022-05-06T00:00:00.000Z').valueOf();
sats=[{"CLASSIFICATION_TYPE":"U","TLE_LINE2":"2 44767  53.0581  50.2522 0002142  49.4072 310.7103 15.06387067136551","TIME_SYSTEM":"UTC","REV_AT_EPOCH":"13655","SITE":"AFETR","RA_OF_ASC_NODE":"50.2522","MEAN_ANOMALY":"310.7103","MEAN_MOTION_DDOT":"0.0000000000000","EPOCH":"2022-05-05T12:03:06.595488","NORAD_CAT_ID":"44767","ECCENTRICITY":"0.00021420","MEAN_MOTION":"15.06387067","BSTAR":"0.00046993000000","MEAN_ELEMENT_THEORY":"SGP4","CENTER_NAME":"EARTH","ELEMENT_SET_NO":"999","TLE_LINE1":"1 44767U 19074BG  22125.50215967  .00006722  00000-0  46993-3 0  9997","APOAPSIS":"548.737","EPHEMERIS_TYPE":"0","GP_ID":"202767656","SEMIMAJOR_AXIS":"6925.388","DECAY_DATE":null,"PERIOD":"95.593","OBJECT_TYPE":"PAYLOAD","ARG_OF_PERICENTER":"49.4072","COUNTRY_CODE":"US","PERIAPSIS":"545.770","RCS_SIZE":"LARGE","OBJECT_NAME":"STARLINK-1062","REF_FRAME":"TEME","INCLINATION":"53.0581","OBJECT_ID":"2019-074BG","FILE":"3430353","MEAN_MOTION_DOT":"0.00006722","LAUNCH_DATE":"2019-11-11"},{"CENTER_NAME":"EARTH","MEAN_ELEMENT_THEORY":"SGP4","BSTAR":"0.00010542000000","MEAN_MOTION":"15.06403599","SEMIMAJOR_AXIS":"6925.338","GP_ID":"202767898","TLE_LINE1":"1 44768U 19074BH  22125.52425332  .00001289  00000-0  10542-3 0  9993","ELEMENT_SET_NO":"999","APOAPSIS":"548.406","EPHEMERIS_TYPE":"0","TIME_SYSTEM":"UTC","TLE_LINE2":"2 44768  53.0553  50.1516 0001738  56.7017 303.4138 15.06403599136560","CLASSIFICATION_TYPE":"U","NORAD_CAT_ID":"44768","ECCENTRICITY":"0.00017380","MEAN_MOTION_DDOT":"0.0000000000000","EPOCH":"2022-05-05T12:34:55.486848","MEAN_ANOMALY":"303.4138","REV_AT_EPOCH":"13656","SITE":"AFETR","RA_OF_ASC_NODE":"50.1516","OBJECT_ID":"2019-074BH","FILE":"3430353","MEAN_MOTION_DOT":"0.00001289","LAUNCH_DATE":"2019-11-11","OBJECT_TYPE":"PAYLOAD","PERIOD":"95.592","DECAY_DATE":null,"REF_FRAME":"TEME","INCLINATION":"53.0553","OBJECT_NAME":"STARLINK-1063","COUNTRY_CODE":"US","RCS_SIZE":"LARGE","PERIAPSIS":"545.999","ARG_OF_PERICENTER":"56.7017"},{"INCLINATION":"53.0028","REF_FRAME":"TEME","OBJECT_NAME":"STARLINK-1065","RCS_SIZE":"LARGE","PERIAPSIS":"522.804","COUNTRY_CODE":"US","ARG_OF_PERICENTER":"93.5971","OBJECT_TYPE":"PAYLOAD","PERIOD":"95.112","DECAY_DATE":null,"FILE":"3430353","LAUNCH_DATE":"2019-11-11","MEAN_MOTION_DOT":"0.00021693","OBJECT_ID":"2019-074BK","NORAD_CAT_ID":"44770","ECCENTRICITY":"0.00017210","EPOCH":"2022-05-05T01:11:11.745600","MEAN_MOTION_DDOT":"0.0000000000000","MEAN_ANOMALY":"266.5218","RA_OF_ASC_NODE":"39.8588","REV_AT_EPOCH":"13662","SITE":"AFETR","TIME_SYSTEM":"UTC","TLE_LINE2":"2 44770  53.0028  39.8588 0001721  93.5971 266.5218 15.14008678136626","CLASSIFICATION_TYPE":"U","SEMIMAJOR_AXIS":"6902.127","GP_ID":"202766154","EPHEMERIS_TYPE":"0","APOAPSIS":"525.180","ELEMENT_SET_NO":"999","TLE_LINE1":"1 44770U 19074BK  22125.04944150  .00021693  00000-0  11936-2 0  9995","CENTER_NAME":"EARTH","MEAN_ELEMENT_THEORY":"SGP4","BSTAR":"0.00119360000000","MEAN_MOTION":"15.14008678"},{"DECAY_DATE":null,"PERIOD":"95.593","OBJECT_TYPE":"PAYLOAD","COUNTRY_CODE":"US","PERIAPSIS":"545.962","RCS_SIZE":"LARGE","ARG_OF_PERICENTER":"36.9375","REF_FRAME":"TEME","INCLINATION":"53.0558","OBJECT_NAME":"STARLINK-1067","OBJECT_ID":"2019-074BL","FILE":"3429345","LAUNCH_DATE":"2019-11-11","MEAN_MOTION_DOT":"0.00000133","TIME_SYSTEM":"UTC","TLE_LINE2":"2 44771  53.0558  51.6946 0001844  36.9375 323.1741 15.06391806136675","CLASSIFICATION_TYPE":"U","MEAN_ANOMALY":"323.1741","REV_AT_EPOCH":"13667","SITE":"AFETR","RA_OF_ASC_NODE":"51.6946","NORAD_CAT_ID":"44771","ECCENTRICITY":"0.00018440","MEAN_MOTION_DDOT":"0.0000000000000","EPOCH":"2022-05-05T04:21:19.665504","BSTAR":"0.00002783300000","MEAN_MOTION":"15.06391806","CENTER_NAME":"EARTH","MEAN_ELEMENT_THEORY":"SGP4","TLE_LINE1":"1 44771U 19074BL  22125.18147761  .00000133  00000-0  27833-4 0  9995","ELEMENT_SET_NO":"999","APOAPSIS":"548.516","EPHEMERIS_TYPE":"0","GP_ID":"202723829","SEMIMAJOR_AXIS":"6925.374"},{"MEAN_MOTION_DOT":"0.00000163","FILE":"3430750","LAUNCH_DATE":"2019-11-11","OBJECT_ID":"2019-074BM","ARG_OF_PERICENTER":"73.9727","COUNTRY_CODE":"US","PERIAPSIS":"546.151","RCS_SIZE":"LARGE","OBJECT_NAME":"STARLINK-1068","REF_FRAME":"TEME","INCLINATION":"53.0554","DECAY_DATE":null,"OBJECT_TYPE":"PAYLOAD","PERIOD":"95.592","TLE_LINE1":"1 44772U 19074BM  22125.90206964  .00000163  00000-0  29871-4 0  9994","ELEMENT_SET_NO":"999","APOAPSIS":"548.259","EPHEMERIS_TYPE":"0","GP_ID":"202801366","SEMIMAJOR_AXIS":"6925.340","MEAN_MOTION":"15.06402738","BSTAR":"0.00002987100000","MEAN_ELEMENT_THEORY":"SGP4","CENTER_NAME":"EARTH","SITE":"AFETR","REV_AT_EPOCH":"13688","RA_OF_ASC_NODE":"28.4786","MEAN_ANOMALY":"286.1430","MEAN_MOTION_DDOT":"0.0000000000000","EPOCH":"2022-05-05T21:38:58.816896","NORAD_CAT_ID":"44772","ECCENTRICITY":"0.00015220","TLE_LINE2":"2 44772  53.0554  28.4786 0001522  73.9727 286.1430 15.06402738136884","CLASSIFICATION_TYPE":"U","TIME_SYSTEM":"UTC"},{"FILE":"3430626","LAUNCH_DATE":"2020-01-07","MEAN_MOTION_DOT":"-0.00000979","OBJECT_ID":"2020-001A","COUNTRY_CODE":"US","RCS_SIZE":"LARGE","PERIAPSIS":"545.865","ARG_OF_PERICENTER":"45.3547","REF_FRAME":"TEME","INCLINATION":"53.0537","OBJECT_NAME":"STARLINK-1073","DECAY_DATE":null,"OBJECT_TYPE":"PAYLOAD","PERIOD":"95.592","TLE_LINE1":"1 44914U 20001A   22125.85231197 -.00000979  00000-0 -46846-4 0  9992","ELEMENT_SET_NO":"999","APOAPSIS":"548.566","EPHEMERIS_TYPE":"0","GP_ID":"202779440","SEMIMAJOR_AXIS":"6925.351","BSTAR":"-0.00004684600000","MEAN_MOTION":"15.06399311","CENTER_NAME":"EARTH","MEAN_ELEMENT_THEORY":"SGP4","MEAN_ANOMALY":"314.7601","REV_AT_EPOCH":"12825","SITE":"AFETR","RA_OF_ASC_NODE":"168.6834","ECCENTRICITY":"0.00019500","NORAD_CAT_ID":"44914","MEAN_MOTION_DDOT":"0.0000000000000","EPOCH":"2022-05-05T20:27:19.754208","TIME_SYSTEM":"UTC","CLASSIFICATION_TYPE":"U","TLE_LINE2":"2 44914  53.0537 168.6834 0001950  45.3547 314.7601 15.06399311128254"},{"TIME_SYSTEM":"UTC","TLE_LINE2":"2 44915  53.0540 168.8397 0001757  55.0661 305.0493 15.06402138128259","CLASSIFICATION_TYPE":"U","MEAN_ANOMALY":"305.0493","REV_AT_EPOCH":"12825","SITE":"AFETR","RA_OF_ASC_NODE":"168.8397","ECCENTRICITY":"0.00017570","NORAD_CAT_ID":"44915","MEAN_MOTION_DDOT":"0.0000000000000","EPOCH":"2022-05-05T19:34:15.528864","BSTAR":"0.00004980000000","MEAN_MOTION":"15.06402138","CENTER_NAME":"EARTH","MEAN_ELEMENT_THEORY":"SGP4","TLE_LINE1":"1 44915U 20001B   22125.81545751  .00000460  00000-0  49800-4 0  9999","ELEMENT_SET_NO":"999","EPHEMERIS_TYPE":"0","APOAPSIS":"548.424","GP_ID":"202778947","SEMIMAJOR_AXIS":"6925.342","DECAY_DATE":null,"OBJECT_TYPE":"PAYLOAD","PERIOD":"95.592","COUNTRY_CODE":"US","RCS_SIZE":"LARGE","PERIAPSIS":"545.990","ARG_OF_PERICENTER":"55.0661","REF_FRAME":"TEME","INCLINATION":"53.0540","OBJECT_NAME":"STARLINK-1084","OBJECT_ID":"2020-001B","LAUNCH_DATE":"2020-01-07","FILE":"3430627","MEAN_MOTION_DOT":"0.00000460"},{"CLASSIFICATION_TYPE":"U","TLE_LINE2":"2 44917  53.0535 168.8356 0001844  50.7739 309.3413 15.06411720128251","TIME_SYSTEM":"UTC","EPOCH":"2022-05-05T19:39:34.064928","MEAN_MOTION_DDOT":"0.0000000000000","NORAD_CAT_ID":"44917","ECCENTRICITY":"0.00018440","RA_OF_ASC_NODE":"168.8356","REV_AT_EPOCH":"12825","SITE":"AFETR","MEAN_ANOMALY":"309.3413","MEAN_ELEMENT_THEORY":"SGP4","CENTER_NAME":"EARTH","MEAN_MOTION":"15.06411720","BSTAR":"0.00024068000000","GP_ID":"202801380","SEMIMAJOR_AXIS":"6925.313","APOAPSIS":"548.455","EPHEMERIS_TYPE":"0","ELEMENT_SET_NO":"999","TLE_LINE1":"1 44917U 20001D   22125.81914427  .00003306  00000-0  24068-3 0  9991","PERIOD":"95.591","OBJECT_TYPE":"PAYLOAD","DECAY_DATE":null,"OBJECT_NAME":"STARLINK-1098","INCLINATION":"53.0535","REF_FRAME":"TEME","ARG_OF_PERICENTER":"50.7739","PERIAPSIS":"545.901","RCS_SIZE":"LARGE","COUNTRY_CODE":"US","OBJECT_ID":"2020-001D","LAUNCH_DATE":"2020-01-07","FILE":"3430750","MEAN_MOTION_DOT":"0.00003306"},{"ELEMENT_SET_NO":"999","TLE_LINE1":"1 44918U 20001E   22125.63115512  .00000818  00000-0  73804-4 0  9998","EPHEMERIS_TYPE":"0","APOAPSIS":"548.630","SEMIMAJOR_AXIS":"6925.325","GP_ID":"202802120","BSTAR":"0.00007380400000","MEAN_MOTION":"15.06407731","CENTER_NAME":"EARTH","MEAN_ELEMENT_THEORY":"SGP4","MEAN_ANOMALY":"313.9060","SITE":"AFETR","REV_AT_EPOCH":"12896","RA_OF_ASC_NODE":"169.6772","ECCENTRICITY":"0.00020790","NORAD_CAT_ID":"44918","MEAN_MOTION_DDOT":"0.0000000000000","EPOCH":"2022-05-05T15:08:51.802368","TIME_SYSTEM":"UTC","CLASSIFICATION_TYPE":"U","TLE_LINE2":"2 44918  53.0515 169.6772 0002079  46.2100 313.9060 15.06407731128968","FILE":"3430750","LAUNCH_DATE":"2020-01-07","MEAN_MOTION_DOT":"0.00000818","OBJECT_ID":"2020-001E","COUNTRY_CODE":"US","PERIAPSIS":"545.750","RCS_SIZE":"LARGE","ARG_OF_PERICENTER":"46.2100","REF_FRAME":"TEME","INCLINATION":"53.0515","OBJECT_NAME":"STARLINK-1099","DECAY_DATE":null,"PERIOD":"95.592","OBJECT_TYPE":"PAYLOAD"},{"MEAN_ANOMALY":"317.0449","RA_OF_ASC_NODE":"170.2139","SITE":"AFETR","REV_AT_EPOCH":"12820","ECCENTRICITY":"0.00017660","NORAD_CAT_ID":"44920","EPOCH":"2022-05-05T12:19:00.865344","MEAN_MOTION_DDOT":"0.0000000000000","TIME_SYSTEM":"UTC","TLE_LINE2":"2 44920  53.0545 170.2139 0001766  43.0678 317.0449 15.06406945128205","CLASSIFICATION_TYPE":"U","APOAPSIS":"548.415","EPHEMERIS_TYPE":"0","ELEMENT_SET_NO":"999","TLE_LINE1":"1 44920U 20001G   22125.51320446 -.00000883  00000-0 -40371-4 0  9999","GP_ID":"202766669","SEMIMAJOR_AXIS":"6925.327","BSTAR":"-0.00004037100000","MEAN_MOTION":"15.06406945","CENTER_NAME":"EARTH","MEAN_ELEMENT_THEORY":"SGP4","PERIAPSIS":"545.969","RCS_SIZE":"LARGE","COUNTRY_CODE":"US","ARG_OF_PERICENTER":"43.0678","INCLINATION":"53.0545","REF_FRAME":"TEME","OBJECT_NAME":"STARLINK-1102","DECAY_DATE":null,"OBJECT_TYPE":"PAYLOAD","PERIOD":"95.592","MEAN_MOTION_DOT":"-0.00000883","FILE":"3430353","LAUNCH_DATE":"2020-01-07","OBJECT_ID":"2020-001G"}];
